[{"OBJECT_NAME":"TRANSPORTER-15 OBJECT AB","OBJECT_ID":"2025-276AB","EPOCH":"2026-03-09T17:52:46.062048","MEAN_MOTION":15.19167026,"ECCENTRICITY":0.00043423,"INCLINATION":97.4278,"RA_OF_ASC_NODE":144.019,"ARG_OF_PERICENTER":4.0315,"MEAN_ANOMALY":356.0954,"EPHEMERIS_TYPE":0,"CLASSIFICATION_TYPE":"U","NORAD_CAT_ID":66691,"ELEMENT_SET_NO":999,"REV_AT_EPOCH":1532,"BSTAR":0.00051798273,"MEAN_MOTION_DOT":0.00010833,"MEAN_MOTION_DDOT":0},{"OBJECT_NAME":"COSMOS 886 DEB","OBJECT_ID":"1976-126AL","EPOCH":"2026-03-09T21:13:20.080416","MEAN_MOTION":13.32330466,"ECCENTRICITY":0.08525222,"INCLINATION":65.8124,"RA_OF_ASC_NODE":304.1373,"ARG_OF_PERICENTER":74.0234,"MEAN_ANOMALY":295.2959,"EPHEMERIS_TYPE":0,"CLASSIFICATION_TYPE":"U","NORAD_CAT_ID":9824,"ELEMENT_SET_NO":999,"REV_AT_EPOCH":34144,"BSTAR":0.00076028605,"MEAN_MOTION_DOT":3.095e-5,"MEAN_MOTION_DDOT":0}]
